{
  "type": "FeatureCollection",
  "features": [
    {
      "type": "Feature",
      "geometry": {
        "type": "Polygon",
        "coordinates": [
          [
            [
              4.885079072462219,
              52.39062230302923
            ],
            [
              4.883580867275015,
              52.387543995402666
            ],
            [
              4.883033844964757,
              52.38662083957496
            ],
            [
              4.882993376599359,
              52.38639854744562
            ],
            [
              4.88291243987058,
              52.386225652793684
            ],
            [
              4.882440308949896,
              52.385781063435815
            ],
            [
              4.882143540941939,
              52.38577283025751
            ],
            [
              4.881914220208671,
              52.385855161973154
            ],
            [
              4.881644431110942,
              52.38586339513611
            ],
            [
              4.881523026016765,
              52.38571519796503
            ],
            [
              4.881496047107504,
              52.3854682015743
            ],
            [
              4.881482557652362,
              52.385237670362784
            ],
            [
              4.881469068197248,
              52.384998904624524
            ],
            [
              4.881469068197248,
              52.38471897073535
            ],
            [
              4.881374642013299,
              52.384397867911815
            ],
            [
              4.8803292092710535,
              52.382779968154495
            ],
            [
              4.880255017269349,
              52.382714098206236
            ],
            [
              4.880066164900427,
              52.38258235801453
            ],
            [
              4.879236563425195,
              52.38222418738215
            ],
            [
              4.879074689966643,
              52.38213361503762
            ],
            [
              4.879045135201579,
              52.38199669430452
            ],
            [
              4.8791371150158795,
              52.38167230593612
            ],
            [
              4.879229094830208,
              52.381391583308954
            ],
            [
              4.879239314809752,
              52.38114205058653
            ],
            [
              4.879034915222832,
              52.38067417293112
            ],
            [
              4.8782173168743554,
              52.37942647494407
            ],
            [
              4.877849397617894,
              52.37887123800459
            ],
            [
              4.877675657968837,
              52.378546826673954
            ],
            [
              4.877563238196217,
              52.378315994083465
            ],
            [
              4.875202422947041,
              52.37457259444943
            ],
            [
              4.875100223153225,
              52.374304305290195
            ],
            [
              4.875069563215362,
              52.374117125841536
            ],
            [
              4.875049123257071,
              52.37385507328119
            ],
            [
              4.875049123257071,
              52.373599258567396
            ],
            [
              4.875038903277471,
              52.37342455498464
            ],
            [
              4.874875383607957,
              52.373162498314485
            ],
            [
              4.874599444165824,
              52.37296907453708
            ],
            [
              4.874349054653777,
              52.372772530157334
            ],
            [
              4.874088445180547,
              52.372482391611555
            ],
            [
              4.874027125304082,
              52.37195826553639
            ],
            [
              4.874313284725787,
              52.37131557864538
            ],
            [
              4.875073330207869,
              52.36951530945075
            ],
            [
              4.875200929747109,
              52.36928158477352
            ],
            [
              4.875413595646762,
              52.36902188923722
            ],
            [
              4.875743227789769,
              52.36872972993382
            ],
            [
              4.87616855958737,
              52.36845055368269
            ],
            [
              4.876508825025496,
              52.36826227102932
            ],
            [
              4.876716174279693,
              52.367960367863304
            ],
            [
              4.876859723761299,
              52.3675675660248
            ],
            [
              4.876934156826508,
              52.36714229728659
            ],
            [
              4.877003273243702,
              52.36687285008904
            ],
            [
              4.877263788969458,
              52.36652224163737
            ],
            [
              4.877699754062263,
              52.366200848111504
            ],
            [
              4.87825268539919,
              52.36586971294295
            ],
            [
              4.878556067185826,
              52.365528640207884
            ],
            [
              4.878643438548863,
              52.36533124161343
            ],
            [
              4.8787045985018835,
              52.36508049077591
            ],
            [
              4.878643438548863,
              52.3648297385148
            ],
            [
              4.878573541458707,
              52.36456831442999
            ],
            [
              4.878573541458707,
              52.36430688879784
            ],
            [
              4.878687124229032,
              52.364077473192964
            ],
            [
              4.878853129819333,
              52.363778697596445
            ],
            [
              4.879123981042852,
              52.36357062054114
            ],
            [
              4.879552100720957,
              52.36333053041329
            ],
            [
              4.8802598087582965,
              52.36282366919204
            ],
            [
              4.880543202603008,
              52.3625536028116
            ],
            [
              4.880892688053791,
              52.36224414594733
            ],
            [
              4.881338282003412,
              52.36196136450383
            ],
            [
              4.881853773044497,
              52.36176928551012
            ],
            [
              4.882561481081865,
              52.36168391680047
            ],
            [
              4.883435194709563,
              52.36167324569996
            ],
            [
              4.8837147830701895,
              52.36163589682869
            ],
            [
              4.884003108566617,
              52.36155586342667
            ],
            [
              4.884204062701372,
              52.361470494304655
            ],
            [
              4.88684267785456,
              52.36015258755589
            ],
            [
              4.887256068087908,
              52.35992839127974
            ],
            [
              4.887588079267175,
              52.359730967663666
            ],
            [
              4.887946301853731,
              52.3593948119086
            ],
            [
              4.888287050168799,
              52.35906932532822
            ],
            [
              4.88867148416395,
              52.35877051586513
            ],
            [
              4.889143289523588,
              52.35853039965366
            ],
            [
              4.889457826428611,
              52.35838099335251
            ],
            [
              4.889833523288075,
              52.35826360233321
            ],
            [
              4.89029659151052,
              52.35816221892867
            ],
            [
              4.890820819687406,
              52.358082179234856
            ],
            [
              4.891432419225964,
              52.358012811382764
            ],
            [
              4.893310903524565,
              52.357890083377924
            ],
            [
              4.897806086416921,
              52.35763074201026
            ],
            [
              4.898365263139567,
              52.3576414140866
            ],
            [
              4.90031364452696,
              52.3580202711361
            ],
            [
              4.901362100880704,
              52.35823904626267
            ],
            [
              4.904007300232763,
              52.358783690988474
            ],
            [
              4.905579882772912,
              52.359067086701714
            ],
            [
              4.906072252469897,
              52.35913682598928
            ],
            [
              4.906640806304694,
              52.35931384054325
            ],
            [
              4.908301875352379,
              52.36011720537479
            ],
            [
              4.9086028744413,
              52.36019890267508
            ],
            [
              4.909048799017768,
              52.360266983643555
            ],
            [
              4.9095616122811805,
              52.36027379173473
            ],
            [
              4.910208202917545,
              52.360266983643555
            ],
            [
              4.910776756752341,
              52.36041676140459
            ],
            [
              4.911178088871196,
              52.360593770830775
            ],
            [
              4.911813531392937,
              52.36092055560121
            ],
            [
              4.912047641795795,
              52.361009059394064
            ],
            [
              4.912425748892616,
              52.36105553456969
            ],
            [
              4.913373338617902,
              52.361116806258025
            ],
            [
              4.914042225482689,
              52.36121892555002
            ],
            [
              4.915580665272017,
              52.36160697670513
            ],
            [
              4.916126922878476,
              52.36177036564632
            ],
            [
              4.916528254997303,
              52.36181802064007
            ],
            [
              4.91731977112039,
              52.36185205989008
            ],
            [
              4.918077842900402,
              52.36192013831092
            ],
            [
              4.9186798410791255,
              52.36203587138613
            ],
            [
              4.919114617540998,
              52.36219925874079
            ],
            [
              4.919950726122551,
              52.362791532836525
            ],
            [
              4.920104505382852,
              52.36288646147182
            ],
            [
              4.9205058375017074,
              52.363049845681104
            ],
            [
              4.920896021506763,
              52.36309749929538
            ],
            [
              4.921319649854013,
              52.36312472990883
            ],
            [
              4.921709833859126,
              52.36317919108535
            ],
            [
              4.921999684833423,
              52.36326088272426
            ],
            [
              4.922334128266215,
              52.36338341989915
            ],
            [
              4.923214829304584,
              52.36400290819407
            ],
            [
              4.92406208599715,
              52.36447943174156
            ],
            [
              4.925020823837059,
              52.36497637225125
            ],
            [
              4.926548115511764,
              52.36574559790762
            ],
            [
              4.927181309826267,
              52.36590335791752
            ],
            [
              4.9282510146268805,
              52.36596273782774
            ],
            [
              4.930805434988315,
              52.366025128553815
            ],
            [
              4.931878291540869,
              52.36606523683105
            ],
            [
              4.933321208010739,
              52.36609754656541
            ],
            [
              4.933591246735034,
              52.366124285376856
            ],
            [
              4.933729915268884,
              52.36618221941333
            ],
            [
              4.933788302020076,
              52.366235696917926
            ],
            [
              4.933853987115839,
              52.36631591305323
            ],
            [
              4.933853987115839,
              52.36641395479904
            ],
            [
              4.933788302013454,
              52.367960311733924
            ],
            [
              4.933751810293813,
              52.36870450456692
            ],
            [
              4.933802898701515,
              52.368927314353385
            ],
            [
              4.933948865578856,
              52.36933728142438
            ],
            [
              4.934116727488913,
              52.36975170079211
            ],
            [
              4.934167815896558,
              52.37002352213693
            ],
            [
              4.934166977867534,
              52.37120820800368
            ],
            [
              4.9341257018434135,
              52.37159461853216
            ],
            [
              4.934001873770114,
              52.37198942579815
            ],
            [
              4.9337404589496145,
              52.37242622972485
            ],
            [
              4.9334420774507635,
              52.37278583303922
            ],
            [
              4.933166903955168,
              52.373063031033496
            ],
            [
              4.932809178410366,
              52.373357027005426
            ],
            [
              4.93228634876931,
              52.37368462021175
            ],
            [
              4.931722243103081,
              52.37397861204573
            ],
            [
              4.930896722616325,
              52.37434819900389
            ],
            [
              4.9302500649009176,
              52.37461698757605
            ],
            [
              4.92950709646334,
              52.374885774512364
            ],
            [
              4.928949073139961,
              52.37507799335498
            ],
            [
              4.928175962423779,
              52.375237213938476
            ],
            [
              4.92741216629409,
              52.37539074752928
            ],
            [
              4.9266017972293525,
              52.37553290778533
            ],
            [
              4.925570242114389,
              52.37570103822631
            ],
            [
              4.921825778162599,
              52.37626398620253
            ],
            [
              4.917910988619724,
              52.37681218965881
            ],
            [
              4.915079354188805,
              52.37715336252273
            ],
            [
              4.912769336625246,
              52.37738080963439
            ],
            [
              4.911964464073009,
              52.37742689334246
            ],
            [
              4.910073602923575,
              52.37756336090473
            ],
            [
              4.909756906967118,
              52.37760884999844
            ],
            [
              4.908732302402228,
              52.37773394476426
            ],
            [
              4.90610558888369,
              52.37811491300556
            ],
            [
              4.90512032723035,
              52.378249776191296
            ],
            [
              4.903099061864054,
              52.378869551428835
            ],
            [
              4.898517428442517,
              52.380522533732176
            ],
            [
              4.897008465357231,
              52.381108162984106
            ],
            [
              4.895266760645001,
              52.38231777166533
            ],
            [
              4.8946519979078005,
              52.38273281321676
            ],
            [
              4.8942421560815035,
              52.382829466168715
            ],
            [
              4.893878887190198,
              52.38286926438141
            ],
            [
              4.8935528766473055,
              52.38286357892454
            ],
            [
              4.8933572703213315,
              52.38290337710646
            ],
            [
              4.893275016366147,
              52.38298361112652
            ],
            [
              4.893193751203967,
              52.383099350527004
            ],
            [
              4.8931734349136775,
              52.38321508962406
            ],
            [
              4.892963499912213,
              52.38364084154898
            ],
            [
              4.892929639428019,
              52.383818581428926
            ],
            [
              4.892929639428019,
              52.383983920209744
            ],
            [
              4.892929639428019,
              52.38424019409652
            ],
            [
              4.893098941848905,
              52.38461633533308
            ],
            [
              4.893200523301402,
              52.38493047281085
            ],
            [
              4.893235546723645,
              52.38513847821844
            ],
            [
              4.893242318820057,
              52.38539474540326
            ],
            [
              4.893181369949133,
              52.3855766115351
            ],
            [
              4.8923186579059745,
              52.38751303799498
            ],
            [
              4.891594043550185,
              52.38918317135514
            ],
            [
              4.891485690001247,
              52.389356755963036
            ],
            [
              4.891390880646156,
              52.38942288325356
            ],
            [
              4.89128929919363,
              52.38949727633644
            ],
            [
              4.8911606293544025,
              52.389563403416076
            ],
            [
              4.890923605966236,
              52.38962953039672
            ],
            [
              4.8906053174158615,
              52.38969979020513
            ],
            [
              4.8902101967573515,
              52.389761249050025
            ],
            [
              4.888307237553562,
              52.39002575519248
            ],
            [
              4.8867157948026545,
              52.39022826663651
            ],
            [
              4.886035554223156,
              52.39031842878177
            ],
            [
              4.885764670350824,
              52.39037628890566
            ],
            [
              4.885487014382079,
              52.39046721180384
            ],
            [
              4.885079072462219,
              52.39062230302923
            ]
          ]
        ]
      },
      "properties": {
        "areaType": "polygon",
        "name": "Rondvaartring, Amsterdam"
      }
    }
  ]
}